[Satellite]
VERSION=1.1
NAME=MOLNIYA 1-69
NICKNAME=MOLNIYA 1-69
TLE1=1 17078U 86089A   20157.47535638  .00001264  00000-0  00000+0 0  9992
TLE2=2 17078  64.1440 257.5512 6715152 266.1515  21.0501  2.00831805245944
STATUS=0
